ONEWEB-0674             
1 55833U 23029AP  25172.23003392 -.00000034  00000+0 -12485-3 0  9990
2 55833  87.9033   1.5457 0001436 101.7847 258.3444 13.14501236111997
ONEWEB-0675             
1 55834U 23029AQ  25172.54675051 -.00000013  00000+0 -64256-4 0  9993
2 55834  87.9220  16.6888 0002082  80.5883 279.5485 13.19726670111359
ONEWEB-0720             
1 55835U 23029AR  25172.53886118 -.00000039  00000+0 -13014-3 0  9994
2 55835  87.9218  16.6869 0002062  98.0954 262.0412 13.19724332111278
ONEWEB-0537             
1 56046U 23043A   25172.58902424  .00000083  00000+0  18454-3 0  9999
2 56046  87.9054 300.6302 0001940  92.9100 267.2253 13.16594006112427
ONEWEB-0538             
1 56047U 23043B   25172.58268877  .00000130  00000+0  30769-3 0  9993
2 56047  87.9046 300.6507 0002202  97.7195 262.4186 13.16594572112436
ONEWEB-0546             
1 56048U 23043C   25173.10199476  .00000053  00000+0  10419-3 0  9995
2 56048  87.9055 300.5209 0001797  77.7705 282.3627 13.16593644112494
ONEWEB-0547             
1 56049U 23043D   25173.08595071 -.00000084  00000+0 -23573-3 0  9995
2 56049  87.9252 315.7999 0002130  98.9180 261.2195 13.21826423111565
ONEWEB-0548             
1 56050U 23043E   25172.59535347  .00000085  00000+0  18798-3 0  9994
2 56050  87.9043 300.6575 0001557 112.1495 247.9801 13.16594606111517
